ONEWEB-0704             
1 61609U 24188R   25223.05798136 -.00000410  00000+0 -12120-2 0  9992
2 61609  87.8807  98.0598 0000881  54.2882 305.8327 13.10371418 42673
ONEWEB-0705             
1 61610U 24188S   25222.91024814 -.00000585  00000+0 -17123-2 0  9994
2 61610  87.8781  98.1293 0000958 122.4616 237.6604 13.10372670 34826
ONEWEB-0706             
1 61611U 24188T   25222.89533056  .00006968  00000+0  19911-1 0  9990
2 61611  87.8788  98.1595 0001100  73.4341 286.6907 13.10365484 42744
ONEWEB-0707             
1 61612U 24188U   25223.05466143 -.00000293  00000+0 -87669-3 0  9996
2 61612  87.8780  98.0934 0001149  73.4675 286.6578 13.10372999 42705
ONEWEB-0708             
1 61613U 24188V   25223.07292311 -.00000544  00000+0 -15934-2 0  9997
2 61613  87.8819  98.1235 0001040  95.9419 264.1827 13.10374344 42680
