[{"OBJECT_NAME":"ONEWEB-0704","OBJECT_ID":"2024-188R","EPOCH":"2025-08-11T01:23:29.589504","MEAN_MOTION":13.10371418,"ECCENTRICITY":8.81e-5,"INCLINATION":87.8807,"RA_OF_ASC_NODE":98.0598,"ARG_OF_PERICENTER":54.2882,"MEAN_ANOMALY":305.8327,"EPHEMERIS_TYPE":0,"CLASSIFICATION_TYPE":"U","NORAD_CAT_ID":61609,"ELEMENT_SET_NO":999,"REV_AT_EPOCH":4267,"BSTAR":-0.001212,"MEAN_MOTION_DOT":-4.1e-6,"MEAN_MOTION_DDOT":0},{"OBJECT_NAME":"ONEWEB-0705","OBJECT_ID":"2024-188S","EPOCH":"2025-08-10T21:50:45.439296","MEAN_MOTION":13.1037267,"ECCENTRICITY":9.58e-5,"INCLINATION":87.8781,"RA_OF_ASC_NODE":98.1293,"ARG_OF_PERICENTER":122.4616,"MEAN_ANOMALY":237.6604,"EPHEMERIS_TYPE":0,"CLASSIFICATION_TYPE":"U","NORAD_CAT_ID":61610,"ELEMENT_SET_NO":999,"REV_AT_EPOCH":3482,"BSTAR":-0.0017123,"MEAN_MOTION_DOT":-5.85e-6,"MEAN_MOTION_DDOT":0},{"OBJECT_NAME":"ONEWEB-0706","OBJECT_ID":"2024-188T","EPOCH":"2025-08-10T21:29:16.560384","MEAN_MOTION":13.10365484,"ECCENTRICITY":0.00011,"INCLINATION":87.8788,"RA_OF_ASC_NODE":98.1595,"ARG_OF_PERICENTER":73.4341,"MEAN_ANOMALY":286.6907,"EPHEMERIS_TYPE":0,"CLASSIFICATION_TYPE":"U","NORAD_CAT_ID":61611,"ELEMENT_SET_NO":999,"REV_AT_EPOCH":4274,"BSTAR":0.019911,"MEAN_MOTION_DOT":6.968e-5,"MEAN_MOTION_DDOT":0},{"OBJECT_NAME":"ONEWEB-0707","OBJECT_ID":"2024-188U","EPOCH":"2025-08-11T01:18:42.747552","MEAN_MOTION":13.10372999,"ECCENTRICITY":0.0001149,"INCLINATION":87.878,"RA_OF_ASC_NODE":98.0934,"ARG_OF_PERICENTER":73.4675,"MEAN_ANOMALY":286.6578,"EPHEMERIS_TYPE":0,"CLASSIFICATION_TYPE":"U","NORAD_CAT_ID":61612,"ELEMENT_SET_NO":999,"REV_AT_EPOCH":4270,"BSTAR":-0.00087669,"MEAN_MOTION_DOT":-2.93e-6,"MEAN_MOTION_DDOT":0},{"OBJECT_NAME":"ONEWEB-0708","OBJECT_ID":"2024-188V","EPOCH":"2025-08-11T01:45:00.556704","MEAN_MOTION":13.10374344,"ECCENTRICITY":0.000104,"INCLINATION":87.8819,"RA_OF_ASC_NODE":98.1235,"ARG_OF_PERICENTER":95.9419,"MEAN_ANOMALY":264.1827,"EPHEMERIS_TYPE":0,"CLASSIFICATION_TYPE":"U","NORAD_CAT_ID":61613,"ELEMENT_SET_NO":999,"REV_AT_EPOCH":4268,"BSTAR":-0.0015934,"MEAN_MOTION_DOT":-5.44e-6,"MEAN_MOTION_DDOT":0}]
